OBJECT_NAME,OBJECT_ID,EPOCH,MEAN_MOTION,ECCENTRICITY,INCLINATION,RA_OF_ASC_NODE,ARG_OF_PERICENTER,MEAN_ANOMALY,EPHEMERIS_TYPE,CLASSIFICATION_TYPE,NORAD_CAT_ID,ELEMENT_SET_NO,REV_AT_EPOCH,BSTAR,MEAN_MOTION_DOT,MEAN_MOTION_DDOT
SAUDISAT 1C (SO-50),2002-058C,2026-06-17T21:31:45.316128,14.83048298,.00752003,64.5511,126.7887,262.3451,96.9110,0,U,27607,999,26456,.10900681E-3,.776E-5,0
SAUDISAT 2,2004-025F,2026-06-17T20:28:39.009792,14.56684246,.00235707,98.5507,168.8523,296.1156,63.7616,0,U,28371,999,16584,.52852686E-4,.187E-5,0
SAUDISAT 3,2007-012B,2026-06-17T19:15:53.766432,14.71425971,.0013669,98.1456,119.2037,221.7301,138.2864,0,U,31118,999,2783,.40881335E-4,.202E-5,0
PISAT,2016-059B,2026-06-17T23:04:24.956544,14.68984509,.00284433,97.8178,169.3809,200.2325,159.7756,0,U,41784,999,51985,.11935816E-3,.656E-5,0
FLYING LAPTOP,2017-042G,2026-06-17T22:03:00.734400,15.01150240,.0019572,97.4687,324.4230,119.1525,241.1661,0,U,42831,999,48656,.23192411E-3,.2926E-4,0
SALSAT,2020-068K,2026-06-17T12:54:41.050368,15.29803905,.000804,97.8847,171.6239,306.6544,53.3955,0,U,46495,999,31541,.21821E-3,.6219E-4,0
